JILIN-1 GAOFEN 03D51    
1 54252U 22155B   26186.66354654  .00060409  00000+0  63688-3 0  9997
2 54252  97.6250 332.9182 0003821 268.4993  91.5828 15.64059445202631
JILIN-1 GAOFEN 03D53    
1 54253U 22155C   26186.64335039  .00036802  00000+0  56992-3 0  9992
2 54253  97.6241 328.2566 0004519 293.4936  66.5841 15.53949973202354
JILIN-1 GAOFEN 03D52    
1 54255U 22155E   26186.63491961  .00055561  00000+0  65140-3 0  9998
2 54255  97.6226 331.1443 0003297 289.1881  70.9019 15.61341240202582
JILIN-1 GAOFEN 03D50    
1 54690U 22167J   26186.64576103  .00012141  00000+0  36067-3 0  9990
2 54690  97.6852 355.2486 0006000  51.6881 308.4900 15.34916154198181
JILIN-1 GAOFEN 03D47    
1 54692U 22167L   26186.64521351  .00011746  00000+0  35679-3 0  9995
2 54692  97.6950 356.9843 0008485  59.6163 300.5916 15.34204734198170
JILIN-1 GAOFEN 03D49    
1 54694U 22167N   26186.61863816  .00015024  00000+0  40532-3 0  9996
2 54694  97.6825 357.5737 0006589  77.4867 282.7114 15.37873961198329
JILIN-1 GAOFEN 03D48    
1 54695U 22167P   26186.64283310  .00012792  00000+0  37111-3 0  9993
2 54695  97.6898 356.9495 0007161  59.9451 300.2501 15.35643459198225
JILIN GAOFEN OBJECT A   
1 68691U 26080A   26185.06116481  .00006260  00000+0  39809-3 0  9990
2 68691  97.6614 260.5556 0012282  15.1953 344.9642 15.09112385 12205
JILIN GAOFEN OBJECT B   
1 68692U 26080B   26186.36866077  .00009232  00000+0  58544-3 0  9997
2 68692  97.6582 261.8792 0015674 348.0668  12.0187 15.09041215 12407
JILIN GAOFEN OBJECT D   
1 68694U 26080D   26186.63383902  .00006698  00000+0  42742-3 0  9996
2 68694  97.6647 262.2118 0017314 358.9281   1.1907 15.08898269 12421
JILIN GAOFEN OBJECT E   
1 68695U 26080E   26186.61734243  .00006808  00000+0  43145-3 0  9994
2 68695  97.6634 262.2140 0013352  10.9697 349.1820 15.09193902 12407
JILIN GAOFEN OBJECT F   
1 68696U 26080F   26186.61613615  .00006855  00000+0  43468-3 0  9994
2 68696  97.6606 262.1853 0014456  16.5419 343.6278 15.09158340 12400
JILIN GAOFEN OBJECT G   
1 68697U 26080G   26186.60214961  .00006473  00000+0  41090-3 0  9990
2 68697  97.6652 262.2503 0014351  10.7137 349.4395 15.09143269 12400
JILIN GAOFEN OBJECT H   
1 68698U 26080H   26182.82007068  .00007709  00000+0  48996-3 0  9994
2 68698  97.6647 258.4665 0015405  23.9908 336.2035 15.09020248 11836
