{"fetched_at":"2026-07-06T08:47:06.888Z","source":"https://celestrak.org/NORAD/elements/gp.php?NAME=JILIN&FORMAT=JSON","constellation":"jilin-1-gaofen","records":[{"OBJECT_NAME":"JILIN-1 GAOFEN 03D51","OBJECT_ID":"2022-155B","EPOCH":"2026-07-05T15:55:30.421056","CLASSIFICATION_TYPE":"U","MEAN_MOTION":15.64059445,"ECCENTRICITY":0.00038217,"INCLINATION":97.625,"RA_OF_ASC_NODE":332.9182,"ARG_OF_PERICENTER":268.4993,"MEAN_ANOMALY":91.5828,"EPHEMERIS_TYPE":0,"NORAD_CAT_ID":54252,"ELEMENT_SET_NO":999,"REV_AT_EPOCH":20263,"BSTAR":0.00063688422,"MEAN_MOTION_DOT":0.00060409,"MEAN_MOTION_DDOT":0},{"OBJECT_NAME":"JILIN-1 GAOFEN 03D53","OBJECT_ID":"2022-155C","EPOCH":"2026-07-05T15:26:25.473696","CLASSIFICATION_TYPE":"U","MEAN_MOTION":15.53949973,"ECCENTRICITY":0.0004519,"INCLINATION":97.6241,"RA_OF_ASC_NODE":328.2566,"ARG_OF_PERICENTER":293.4936,"MEAN_ANOMALY":66.5841,"EPHEMERIS_TYPE":0,"NORAD_CAT_ID":54253,"ELEMENT_SET_NO":999,"REV_AT_EPOCH":20235,"BSTAR":0.00056992049,"MEAN_MOTION_DOT":0.00036802,"MEAN_MOTION_DDOT":0},{"OBJECT_NAME":"JILIN-1 GAOFEN 03D52","OBJECT_ID":"2022-155E","EPOCH":"2026-07-05T15:14:17.054304","CLASSIFICATION_TYPE":"U","MEAN_MOTION":15.6134124,"ECCENTRICITY":0.0003297,"INCLINATION":97.6226,"RA_OF_ASC_NODE":331.1443,"ARG_OF_PERICENTER":289.1881,"MEAN_ANOMALY":70.9019,"EPHEMERIS_TYPE":0,"NORAD_CAT_ID":54255,"ELEMENT_SET_NO":999,"REV_AT_EPOCH":20258,"BSTAR":0.00065139802,"MEAN_MOTION_DOT":0.00055561,"MEAN_MOTION_DDOT":0},{"OBJECT_NAME":"JILIN-1 GAOFEN 03D50","OBJECT_ID":"2022-167J","EPOCH":"2026-07-05T15:29:53.752992","CLASSIFICATION_TYPE":"U","MEAN_MOTION":15.34916154,"ECCENTRICITY":0.00060006,"INCLINATION":97.6852,"RA_OF_ASC_NODE":355.2486,"ARG_OF_PERICENTER":51.6881,"MEAN_ANOMALY":308.49,"EPHEMERIS_TYPE":0,"NORAD_CAT_ID":54690,"ELEMENT_SET_NO":999,"REV_AT_EPOCH":19818,"BSTAR":0.0003606712,"MEAN_MOTION_DOT":0.00012141,"MEAN_MOTION_DDOT":0},{"OBJECT_NAME":"JILIN-1 GAOFEN 03D47","OBJECT_ID":"2022-167L","EPOCH":"2026-07-05T15:29:06.447264","CLASSIFICATION_TYPE":"U","MEAN_MOTION":15.34204734,"ECCENTRICITY":0.00084851,"INCLINATION":97.695,"RA_OF_ASC_NODE":356.9843,"ARG_OF_PERICENTER":59.6163,"MEAN_ANOMALY":300.5916,"EPHEMERIS_TYPE":0,"NORAD_CAT_ID":54692,"ELEMENT_SET_NO":999,"REV_AT_EPOCH":19817,"BSTAR":0.00035678782,"MEAN_MOTION_DOT":0.00011746,"MEAN_MOTION_DDOT":0},{"OBJECT_NAME":"JILIN-1 GAOFEN 03D49","OBJECT_ID":"2022-167N","EPOCH":"2026-07-05T14:50:50.337024","CLASSIFICATION_TYPE":"U","MEAN_MOTION":15.37873961,"ECCENTRICITY":0.00065891,"INCLINATION":97.6825,"RA_OF_ASC_NODE":357.5737,"ARG_OF_PERICENTER":77.4867,"MEAN_ANOMALY":282.7114,"EPHEMERIS_TYPE":0,"NORAD_CAT_ID":54694,"ELEMENT_SET_NO":999,"REV_AT_EPOCH":19832,"BSTAR":0.00040532457,"MEAN_MOTION_DOT":0.00015024,"MEAN_MOTION_DDOT":0},{"OBJECT_NAME":"JILIN-1 GAOFEN 03D48","OBJECT_ID":"2022-167P","EPOCH":"2026-07-05T15:25:40.779840","CLASSIFICATION_TYPE":"U","MEAN_MOTION":15.35643459,"ECCENTRICITY":0.00071613,"INCLINATION":97.6898,"RA_OF_ASC_NODE":356.9495,"ARG_OF_PERICENTER":59.9451,"MEAN_ANOMALY":300.2501,"EPHEMERIS_TYPE":0,"NORAD_CAT_ID":54695,"ELEMENT_SET_NO":999,"REV_AT_EPOCH":19822,"BSTAR":0.0003711122,"MEAN_MOTION_DOT":0.00012792,"MEAN_MOTION_DDOT":0},{"OBJECT_NAME":"JILIN GAOFEN OBJECT A","OBJECT_ID":"2026-080A","EPOCH":"2026-07-04T01:28:04.639584","CLASSIFICATION_TYPE":"U","MEAN_MOTION":15.09112385,"ECCENTRICITY":0.0012282,"INCLINATION":97.6614,"RA_OF_ASC_NODE":260.5556,"ARG_OF_PERICENTER":15.1953,"MEAN_ANOMALY":344.9642,"EPHEMERIS_TYPE":0,"NORAD_CAT_ID":68691,"ELEMENT_SET_NO":999,"REV_AT_EPOCH":1220,"BSTAR":0.00039809,"MEAN_MOTION_DOT":0.0000626,"MEAN_MOTION_DDOT":0},{"OBJECT_NAME":"JILIN GAOFEN OBJECT B","OBJECT_ID":"2026-080B","EPOCH":"2026-07-05T08:50:52.289664","CLASSIFICATION_TYPE":"U","MEAN_MOTION":15.09041215,"ECCENTRICITY":0.0015674,"INCLINATION":97.6582,"RA_OF_ASC_NODE":261.8792,"ARG_OF_PERICENTER":348.0668,"MEAN_ANOMALY":12.0187,"EPHEMERIS_TYPE":0,"NORAD_CAT_ID":68692,"ELEMENT_SET_NO":999,"REV_AT_EPOCH":1240,"BSTAR":0.00058544,"MEAN_MOTION_DOT":0.00009232,"MEAN_MOTION_DDOT":0},{"OBJECT_NAME":"JILIN GAOFEN OBJECT D","OBJECT_ID":"2026-080D","EPOCH":"2026-07-05T15:12:43.691328","CLASSIFICATION_TYPE":"U","MEAN_MOTION":15.08898269,"ECCENTRICITY":0.00173142,"INCLINATION":97.6647,"RA_OF_ASC_NODE":262.2118,"ARG_OF_PERICENTER":358.9281,"MEAN_ANOMALY":1.1907,"EPHEMERIS_TYPE":0,"NORAD_CAT_ID":68694,"ELEMENT_SET_NO":999,"REV_AT_EPOCH":1242,"BSTAR":0.00042742189,"MEAN_MOTION_DOT":0.00006698,"MEAN_MOTION_DDOT":0},{"OBJECT_NAME":"JILIN GAOFEN OBJECT E","OBJECT_ID":"2026-080E","EPOCH":"2026-07-05T14:48:58.385952","CLASSIFICATION_TYPE":"U","MEAN_MOTION":15.09193902,"ECCENTRICITY":0.00133524,"INCLINATION":97.6634,"RA_OF_ASC_NODE":262.214,"ARG_OF_PERICENTER":10.9697,"MEAN_ANOMALY":349.182,"EPHEMERIS_TYPE":0,"NORAD_CAT_ID":68695,"ELEMENT_SET_NO":999,"REV_AT_EPOCH":1240,"BSTAR":0.00043144991,"MEAN_MOTION_DOT":0.00006808,"MEAN_MOTION_DDOT":0},{"OBJECT_NAME":"JILIN GAOFEN OBJECT F","OBJECT_ID":"2026-080F","EPOCH":"2026-07-05T14:47:14.163360","CLASSIFICATION_TYPE":"U","MEAN_MOTION":15.0915834,"ECCENTRICITY":0.00144568,"INCLINATION":97.6606,"RA_OF_ASC_NODE":262.1853,"ARG_OF_PERICENTER":16.5419,"MEAN_ANOMALY":343.6278,"EPHEMERIS_TYPE":0,"NORAD_CAT_ID":68696,"ELEMENT_SET_NO":999,"REV_AT_EPOCH":1240,"BSTAR":0.00043468479,"MEAN_MOTION_DOT":0.00006855,"MEAN_MOTION_DDOT":0},{"OBJECT_NAME":"JILIN GAOFEN OBJECT G","OBJECT_ID":"2026-080G","EPOCH":"2026-07-05T14:27:05.726304","CLASSIFICATION_TYPE":"U","MEAN_MOTION":15.09143269,"ECCENTRICITY":0.00143519,"INCLINATION":97.6652,"RA_OF_ASC_NODE":262.2503,"ARG_OF_PERICENTER":10.7137,"MEAN_ANOMALY":349.4395,"EPHEMERIS_TYPE":0,"NORAD_CAT_ID":68697,"ELEMENT_SET_NO":999,"REV_AT_EPOCH":1240,"BSTAR":0.00041090116,"MEAN_MOTION_DOT":0.00006473,"MEAN_MOTION_DDOT":0},{"OBJECT_NAME":"JILIN GAOFEN OBJECT H","OBJECT_ID":"2026-080H","EPOCH":"2026-07-01T19:40:54.106752","CLASSIFICATION_TYPE":"U","MEAN_MOTION":15.09020248,"ECCENTRICITY":0.00154058,"INCLINATION":97.6647,"RA_OF_ASC_NODE":258.4665,"ARG_OF_PERICENTER":23.9908,"MEAN_ANOMALY":336.2035,"EPHEMERIS_TYPE":0,"NORAD_CAT_ID":68698,"ELEMENT_SET_NO":999,"REV_AT_EPOCH":1183,"BSTAR":0.00048995825,"MEAN_MOTION_DOT":0.00007709,"MEAN_MOTION_DDOT":0}]}
